OBJECT_NAME,OBJECT_ID,EPOCH,MEAN_MOTION,ECCENTRICITY,INCLINATION,RA_OF_ASC_NODE,ARG_OF_PERICENTER,MEAN_ANOMALY,EPHEMERIS_TYPE,CLASSIFICATION_TYPE,NORAD_CAT_ID,ELEMENT_SET_NO,REV_AT_EPOCH,BSTAR,MEAN_MOTION_DOT,MEAN_MOTION_DDOT
LASARSAT,2024-247Q,2026-06-08T21:36:08.998560,15.45852185,.00083649,44.9750,308.7653,285.6781,74.3185,0,U,62391,999,8203,.69420082E-3,.34289E-3,0
CROCUBE,2024-247T,2026-06-09T05:32:04.033536,15.47689527,.00082013,44.9724,304.3705,290.8811,69.1201,0,U,62394,999,8211,.64616079E-3,.33999E-3,0
TEVEL2-4,2025-052D,2026-06-09T05:26:05.601408,15.34330791,.00045332,97.3920,56.6072,118.1201,242.0501,0,U,63213,999,6889,.46062864E-3,.15249E-3,0
TEVEL2-5,2025-052E,2026-06-09T04:20:24.994176,15.34159706,.00044224,97.3911,56.5103,119.9533,240.2150,0,U,63214,999,6888,.4915722E-3,.16193E-3,0
TEVEL2-6,2025-052F,2026-06-09T06:11:49.750944,15.34124854,.00044587,97.3915,56.5722,119.7747,240.3940,0,U,63215,999,6889,.50178685E-3,.16514E-3,0
TEVEL2-1,2025-052H,2026-06-09T05:15:44.543520,15.33600892,.00043033,97.3890,56.1670,128.3917,231.7713,0,U,63217,999,6887,.47282693E-3,.15298E-3,0
TEVEL2-3,2025-052J,2026-06-09T06:42:23.209056,15.33659205,.00044119,97.3888,56.2474,129.8518,230.3113,0,U,63218,999,6888,.49846388E-3,.16163E-3,0
TEVEL2-2,2025-052K,2026-06-08T16:44:35.826432,15.33595395,.00042303,97.3887,55.6477,131.0442,229.1167,0,U,63219,999,6879,.56086739E-3,.18164E-3,0
TEVEL2-9,2025-052AD,2026-06-09T04:29:00.213792,15.31651687,.00070209,97.3949,55.5291,153.2929,206.8676,0,U,63237,999,6880,.47808688E-3,.14556E-3,0
TEVEL2-7,2025-052AE,2026-06-09T05:25:43.286016,15.31364267,.00071258,97.3950,55.4878,153.9029,206.2573,0,U,63238,999,6880,.44435407E-3,.13402E-3,0
TEVEL2-8,2025-052AF,2026-06-09T05:37:29.105760,15.31348638,.00072092,97.3943,55.4720,154.6102,205.5495,0,U,63239,999,6880,.46151228E-3,.13916E-3,0
FORESAIL-1 PRIME,2025-276DS,2026-06-08T04:01:00.773184,15.18619338,.0003714,97.4199,232.6039,122.1307,238.0288,0,U,66778,999,2903,.21751E-3,.4435E-4,0
